{
  "type": "FeatureCollection",
  "features": [
    {
      "type": "Feature",
      "properties": {
        "norad_id": 35837,
        "name": "COSMOS 2251 DEB",
        "group": "cosmos-2251-debris",
        "lat": -1.8725024232192373,
        "lon": -161.64561707703967,
        "alt_km": 1175.3553427540273,
        "timestamp": "2025-12-17T23:38:07.250187+00:00",
        "meta_object_name": "COSMOS 2251 DEB",
        "meta_object_id": "1993-036ATK",
        "meta_epoch": "2025-12-16T23:21:00.080640",
        "meta_mean_motion": 13.63500848,
        "meta_eccentricity": 0.04220019,
        "meta_inclination": 73.7226,
        "meta_ra_of_asc_node": 200.5847,
        "meta_arg_of_pericenter": 120.7082,
        "meta_mean_anomaly": 316.5322,
        "meta_ephemeris_type": 0,
        "meta_classification_type": "U",
        "meta_norad_cat_id": 35837,
        "meta_element_set_no": 999,
        "meta_rev_at_epoch": 58034,
        "meta_bstar": 0.0021838003,
        "meta_mean_motion_dot": 3.133e-05,
        "meta_mean_motion_ddot": 0,
        "tle_line1": "1 35837U 93036ATK 25350.97291760  .00003133  00000+0  21838-2 0  9996",
        "tle_line2": "2 35837  73.7226 200.5847 0422001 120.7082 316.5322 13.63500848580340"
      },
      "geometry": {
        "type": "Point",
        "coordinates": [
          -161.64561707703967,
          -1.8725024232192373
        ]
      }
    },
    {
      "type": "Feature",
      "properties": {
        "norad_id": 35839,
        "name": "COSMOS 2251 DEB",
        "group": "cosmos-2251-debris",
        "lat": 19.149002577673922,
        "lon": -42.3057561880677,
        "alt_km": 400.11860681795224,
        "timestamp": "2025-12-17T23:38:07.250197+00:00",
        "meta_object_name": "COSMOS 2251 DEB",
        "meta_object_id": "1993-036ATM",
        "meta_epoch": "2025-12-16T15:08:07.290816",
        "meta_mean_motion": 15.55085183,
        "meta_eccentricity": 0.00039845,
        "meta_inclination": 74.2053,
        "meta_ra_of_asc_node": 315.0166,
        "meta_arg_of_pericenter": 133.4354,
        "meta_mean_anomaly": 226.7195,
        "meta_ephemeris_type": 0,
        "meta_classification_type": "U",
        "meta_norad_cat_id": 35839,
        "meta_element_set_no": 999,
        "meta_rev_at_epoch": 88628,
        "meta_bstar": 0.0051685492,
        "meta_mean_motion_dot": 0.0036429,
        "meta_mean_motion_ddot": 0,
        "tle_line1": "1 35839U 93036ATM 25350.63063994  .00364290  00000+0  51685-2 0  9994",
        "tle_line2": "2 35839  74.2053 315.0166 0003984 133.4354 226.7195 15.55085183886285"
      },
      "geometry": {
        "type": "Point",
        "coordinates": [
          -42.3057561880677,
          19.149002577673922
        ]
      }
    },
    {
      "type": "Feature",
      "properties": {
        "norad_id": 35840,
        "name": "COSMOS 2251 DEB",
        "group": "cosmos-2251-debris",
        "lat": 46.954559362582266,
        "lon": -49.51536469998414,
        "alt_km": 746.4224287064708,
        "timestamp": "2025-12-17T23:38:07.250207+00:00",
        "meta_object_name": "COSMOS 2251 DEB",
        "meta_object_id": "1993-036ATN",
        "meta_epoch": "2025-12-12T04:26:56.474304",
        "meta_mean_motion": 14.37821687,
        "meta_eccentricity": 0.01162768,
        "meta_inclination": 73.9307,
        "meta_ra_of_asc_node": 159.2062,
        "meta_arg_of_pericenter": 61.7798,
        "meta_mean_anomaly": 299.5037,
        "meta_ephemeris_type": 0,
        "meta_classification_type": "U",
        "meta_norad_cat_id": 35840,
        "meta_element_set_no": 999,
        "meta_rev_at_epoch": 85283,
        "meta_bstar": 0.0026691111,
        "meta_mean_motion_dot": 8.683e-05,
        "meta_mean_motion_ddot": 0,
        "tle_line1": "1 35840U 93036ATN 25346.18537586  .00008683  00000+0  26691-2 0  9994",
        "tle_line2": "2 35840  73.9307 159.2062 0116276  61.7798 299.5037 14.37821687852835"
      },
      "geometry": {
        "type": "Point",
        "coordinates": [
          -49.51536469998414,
          46.954559362582266
        ]
      }
    },
    {
      "type": "Feature",
      "properties": {
        "norad_id": 35883,
        "name": "COSMOS 2251 DEB",
        "group": "cosmos-2251-debris",
        "lat": 8.744062621916461,
        "lon": 62.6856593698321,
        "alt_km": 784.3510239166344,
        "timestamp": "2025-12-17T23:38:07.250217+00:00",
        "meta_object_name": "COSMOS 2251 DEB",
        "meta_object_id": "1993-036ATW",
        "meta_epoch": "2025-12-16T04:41:35.789568",
        "meta_mean_motion": 14.50615193,
        "meta_eccentricity": 0.00835028,
        "meta_inclination": 74.0253,
        "meta_ra_of_asc_node": 63.5249,
        "meta_arg_of_pericenter": 192.1269,
        "meta_mean_anomaly": 197.0315,
        "meta_ephemeris_type": 0,
        "meta_classification_type": "U",
        "meta_norad_cat_id": 35883,
        "meta_element_set_no": 999,
        "meta_rev_at_epoch": 62436,
        "meta_bstar": 0.00022216854,
        "meta_mean_motion_dot": 8.82e-06,
        "meta_mean_motion_ddot": 0,
        "tle_line1": "1 35883U 93036ATW 25350.19555312  .00000882  00000+0  22217-3 0  9998",
        "tle_line2": "2 35883  74.0253  63.5249 0083502 192.1269 197.0315 14.50615193624369"
      },
      "geometry": {
        "type": "Point",
        "coordinates": [
          62.6856593698321,
          8.744062621916461
        ]
      }
    },
    {
      "type": "Feature",
      "properties": {
        "norad_id": 35884,
        "name": "COSMOS 2251 DEB",
        "group": "cosmos-2251-debris",
        "lat": -20.62516450605492,
        "lon": -39.691945045243806,
        "alt_km": 864.1924041744132,
        "timestamp": "2025-12-17T23:38:07.250226+00:00",
        "meta_object_name": "COSMOS 2251 DEB",
        "meta_object_id": "1993-036ATX",
        "meta_epoch": "2025-12-16T07:19:09.379488",
        "meta_mean_motion": 14.25680751,
        "meta_eccentricity": 0.01084022,
        "meta_inclination": 73.9902,
        "meta_ra_of_asc_node": 329.5521,
        "meta_arg_of_pericenter": 115.5254,
        "meta_mean_anomaly": 245.7151,
        "meta_ephemeris_type": 0,
        "meta_classification_type": "U",
        "meta_norad_cat_id": 35884,
        "meta_element_set_no": 999,
        "meta_rev_at_epoch": 22408,
        "meta_bstar": 0.00087030299,
        "meta_mean_motion_dot": 2.171e-05,
        "meta_mean_motion_ddot": 0,
        "tle_line1": "1 35884U 93036ATX 25350.30496967  .00002171  00000+0  87030-3 0  9999",
        "tle_line2": "2 35884  73.9902 329.5521 0108402 115.5254 245.7151 14.25680751224085"
      },
      "geometry": {
        "type": "Point",
        "coordinates": [
          -39.691945045243806,
          -20.62516450605492
        ]
      }
    },
    {
      "type": "Feature",
      "properties": {
        "norad_id": 35885,
        "name": "COSMOS 2251 DEB",
        "group": "cosmos-2251-debris",
        "lat": -6.584020830953082,
        "lon": -76.75624388025847,
        "alt_km": 753.6360079193128,
        "timestamp": "2025-12-17T23:38:07.250236+00:00",
        "meta_object_name": "COSMOS 2251 DEB",
        "meta_object_id": "1993-036ATY",
        "meta_epoch": "2025-12-17T11:58:32.092320",
        "meta_mean_motion": 14.37529701,
        "meta_eccentricity": 0.00234773,
        "meta_inclination": 74.0285,
        "meta_ra_of_asc_node": 286.0322,
        "meta_arg_of_pericenter": 5.3939,
        "meta_mean_anomaly": 354.7462,
        "meta_ephemeris_type": 0,
        "meta_classification_type": "U",
        "meta_norad_cat_id": 35885,
        "meta_element_set_no": 999,
        "meta_rev_at_epoch": 65084,
        "meta_bstar": 0.00026946709,
        "meta_mean_motion_dot": 7.84e-06,
        "meta_mean_motion_ddot": 0,
        "tle_line1": "1 35885U 93036ATY 25351.49898255  .00000784  00000+0  26947-3 0  9995",
        "tle_line2": "2 35885  74.0285 286.0322 0023477   5.3939 354.7462 14.37529701650845"
      },
      "geometry": {
        "type": "Point",
        "coordinates": [
          -76.75624388025847,
          -6.584020830953082
        ]
      }
    },
    {
      "type": "Feature",
      "properties": {
        "norad_id": 35888,
        "name": "COSMOS 2251 DEB",
        "group": "cosmos-2251-debris",
        "lat": -19.98210927861287,
        "lon": -19.291516661585273,
        "alt_km": 728.5832840719313,
        "timestamp": "2025-12-17T23:38:07.250246+00:00",
        "meta_object_name": "COSMOS 2251 DEB",
        "meta_object_id": "1993-036AUB",
        "meta_epoch": "2025-12-16T16:26:58.946208",
        "meta_mean_motion": 14.58333122,
        "meta_eccentricity": 0.00480696,
        "meta_inclination": 74.0334,
        "meta_ra_of_asc_node": 349.1564,
        "meta_arg_of_pericenter": 120.07,
        "meta_mean_anomaly": 240.5245,
        "meta_ephemeris_type": 0,
        "meta_classification_type": "U",
        "meta_norad_cat_id": 35888,
        "meta_element_set_no": 999,
        "meta_rev_at_epoch": 86331,
        "meta_bstar": 0.00030506199,
        "meta_mean_motion_dot": 1.404e-05,
        "meta_mean_motion_ddot": 0,
        "tle_line1": "1 35888U 93036AUB 25350.68540447  .00001404  00000+0  30506-3 0  9991",
        "tle_line2": "2 35888  74.0334 349.1564 0048069 120.0700 240.5245 14.58333122863319"
      },
      "geometry": {
        "type": "Point",
        "coordinates": [
          -19.291516661585273,
          -19.98210927861287
        ]
      }
    }
  ]
}